{
   "hasZ":true,
   "type":"FeatureCollection",
   "features":[
      {
         "type":"Feature",
         "id":2,
         "geometry":{
            "type":"LineString",
            "coordinates":[
               [
                  -4.4353689160038892,
                  40.712010073495314,
                  0
               ],
               [
                  -4.4354625659497513,
                  40.712053403597736,
                  0
               ],
               [
                  -4.4355288782530939,
                  40.712086980419301,
                  0
               ],
               [
                  -4.435573128702603,
                  40.712113470250912,
                  0
               ],
               [
                  -4.4355881613998811,
                  40.712124744185999,
                  0
               ],
               [
                  -4.4355989486781535,
                  40.71213505052593,
                  0
               ],
               [
                  -4.4356869323584966,
                  40.71224642606726,
                  0
               ],
               [
                  -4.4357101599633486,
                  40.712273574397933,
                  0
               ],
               [
                  -4.4357305290563769,
                  40.712294056680889,
                  0
               ],
               [
                  -4.4357482275137867,
                  40.712308061705116,
                  0
               ],
               [
                  -4.4357634106719761,
                  40.712315712129751,
                  0
               ],
               [
                  -4.435815045959262,
                  40.712331713444414,
                  0
               ],
               [
                  -4.4358737551338834,
                  40.712333571139226,
                  0
               ],
               [
                  -4.4361085330631731,
                  40.71231857182655,
                  0
               ],
               [
                  -4.4366769959583738,
                  40.712276057639912,
                  0
               ],
               [
                  -4.4383135157255751,
                  40.712145404776109,
                  0
               ],
               [
                  -4.4396852777775795,
                  40.712038120006362,
                  0
               ],
               [
                  -4.4407180195556135,
                  40.711955004673186,
                  0
               ],
               [
                  -4.4416586835849587,
                  40.711882012419316,
                  0
               ],
               [
                  -4.4423366334596057,
                  40.711827612649138,
                  0
               ]
            ]
         },
         "properties":{
            "OBJECTID":2,
            "Shape_Length":607.14551329895744
         }
      },
      {
         "type":"Feature",
         "id":4,
         "geometry":{
            "type":"LineString",
            "coordinates":[
               [
                  -4.4423366334596057,
                  40.711827612649138,
                  0
               ],
               [
                  -4.4423795647657363,
                  40.711815905347869,
                  0
               ],
               [
                  -4.4423861573157613,
                  40.711812254237962,
                  0
               ],
               [
                  -4.4423878665069383,
                  40.711807919917256,
                  0
               ],
               [
                  -4.4423839472362507,
                  40.7117827088383,
                  0
               ],
               [
                  -4.4423727275833098,
                  40.711745172909929,
                  0
               ]
            ]
         },
         "properties":{
            "OBJECTID":4,
            "Shape_Length":12.159891839045995
         }
      },
      {
         "type":"Feature",
         "id":7,
         "geometry":{
            "type":"LineString",
            "coordinates":[
               [
                  -4.4426052058698104,
                  40.71173264292964,
                  0
               ],
               [
                  -4.4426020520869871,
                  40.711739211030164,
                  0
               ],
               [
                  -4.4425919989450176,
                  40.711752602919326,
                  0
               ],
               [
                  -4.4425466552589912,
                  40.711805516491452,
                  0
               ],
               [
                  -4.4425429680203132,
                  40.71181085748686,
                  0
               ],
               [
                  -4.4425391473294251,
                  40.711813468234752,
                  0
               ],
               [
                  -4.4425270364809064,
                  40.711816641873924,
                  0
               ],
               [
                  -4.4425121911216712,
                  40.711815819393806,
                  0
               ],
               [
                  -4.4424957922730632,
                  40.711816628805998,
                  0
               ]
            ]
         },
         "properties":{
            "OBJECTID":7,
            "Shape_Length":14.357679271075874
         }
      },
      {
         "type":"Feature",
         "id":8,
         "geometry":{
            "type":"LineString",
            "coordinates":[
               [
                  -4.4424957922730632,
                  40.711816628805998,
                  0
               ],
               [
                  -4.4393813752793321,
                  40.71206191780211,
                  0
               ],
               [
                  -4.4382892361650548,
                  40.712147327932001,
                  0
               ],
               [
                  -4.4363107634741077,
                  40.712303800425744,
                  0
               ],
               [
                  -4.4358559572149696,
                  40.712336660790328,
                  0
               ],
               [
                  -4.4358240959687327,
                  40.712336427485461,
                  0
               ],
               [
                  -4.4357925413874852,
                  40.712330332543885,
                  0
               ],
               [
                  -4.4357629156107361,
                  40.712319559411299,
                  0
               ],
               [
                  -4.4357442239505165,
                  40.712309006122418,
                  0
               ],
               [
                  -4.4357231982525374,
                  40.712293315354898,
                  0
               ],
               [
                  -4.4357004528660005,
                  40.712272790173962,
                  0
               ],
               [
                  -4.4356820491427085,
                  40.712252880875383,
                  0
               ],
               [
                  -4.4356587252773192,
                  40.712221820828447,
                  0
               ],
               [
                  -4.4356419192615952,
                  40.712195139834172,
                  0
               ],
               [
                  -4.4356271101955835,
                  40.712169375714318,
                  0
               ],
               [
                  -4.4356138366938769,
                  40.712151011392258,
                  0
               ],
               [
                  -4.4355972362996772,
                  40.712133286795449,
                  0
               ],
               [
                  -4.435577000805516,
                  40.712116178261574,
                  0
               ],
               [
                  -4.4355533304253907,
                  40.71210034978246,
                  0
               ],
               [
                  -4.4355229009726864,
                  40.71208387338833,
                  0
               ],
               [
                  -4.4354284661115191,
                  40.712042277004109,
                  0
               ],
               [
                  -4.4353641005365043,
                  40.712011911613786,
                  0
               ]
            ]
         },
         "properties":{
            "OBJECTID":8,
            "Shape_Length":621.40702118181946
         }
      },
      {
         "type":"Feature",
         "id":9,
         "geometry":{
            "type":"LineString",
            "coordinates":[
               [
                  -4.4423430567635496,
                  40.70982555187657,
                  0
               ],
               [
                  -4.4423487890748676,
                  40.709823316068231,
                  0
               ],
               [
                  -4.4423547972362023,
                  40.709821989331893,
                  0
               ],
               [
                  -4.442360938018564,
                  40.709821603295701,
                  0
               ],
               [
                  -4.4423670650313998,
                  40.709822167162407,
                  0
               ],
               [
                  -4.4423730322124095,
                  40.709823667489957,
                  0
               ],
               [
                  -4.4423786973095343,
                  40.709826068511937,
                  0
               ],
               [
                  -4.4423839252721162,
                  40.709829312990195,
                  0
               ],
               [
                  -4.4423885914703787,
                  40.709833323579396,
                  0
               ],
               [
                  -4.4423914206128359,
                  40.709834435508633,
                  0
               ],
               [
                  -4.4423940143682827,
                  40.709836020710938,
                  0
               ],
               [
                  -4.4423962943117346,
                  40.70983803125602,
                  0
               ],
               [
                  -4.4423981915066495,
                  40.709840406352882,
                  0
               ],
               [
                  -4.4423996485893014,
                  40.70984307418793,
                  0
               ],
               [
                  -4.4424006215032295,
                  40.709845954096288,
                  0
               ],
               [
                  -4.4424010808313348,
                  40.709848959000837,
                  0
               ],
               [
                  -4.4424010126853393,
                  40.70985199804506,
                  0
               ],
               [
                  -4.4424004191257094,
                  40.709854979340186,
                  0
               ],
               [
                  -4.4423993180993593,
                  40.709857812743557,
                  0
               ],
               [
                  -4.4423977428970041,
                  40.709860412584163,
                  0
               ],
               [
                  -4.44239574114658,
                  40.709862700253048,
                  0
               ],
               [
                  -4.4423979449544575,
                  40.709983132989905,
                  0
               ],
               [
                  -4.4424026457566574,
                  40.710120090802469,
                  0
               ],
               [
                  -4.4424088834478361,
                  40.710388976108966,
                  0
               ],
               [
                  -4.4424163706766198,
                  40.710768791524963,
                  0
               ],
               [
                  -4.442422611544468,
                  40.711123763298822,
                  0
               ],
               [
                  -4.4424311694477625,
                  40.711487353122287,
                  0
               ],
               [
                  -4.4424352584421518,
                  40.711752379057167,
                  0
               ],
               [
                  -4.4424350820168685,
                  40.711766186759149,
                  0
               ],
               [
                  -4.4424371655543489,
                  40.711773383201752,
                  0
               ],
               [
                  -4.4424527839329322,
                  40.711782706132844,
                  0
               ],
               [
                  -4.4424708293290971,
                  40.711786534321675,
                  0
               ],
               [
                  -4.4424943688393554,
                  40.711787320209289,
                  0
               ],
               [
                  -4.4425113261201918,
                  40.711784717784546,
                  0
               ],
               [
                  -4.4425219699476735,
                  40.711780513616723,
                  0
               ],
               [
                  -4.4425245975356011,
                  40.711777636195094,
                  0
               ],
               [
                  -4.4425243729334722,
                  40.711770522250205,
                  0
               ],
               [
                  -4.4425186653377198,
                  40.711748680095504,
                  0
               ],
               [
                  -4.4425181189233989,
                  40.711682945550749,
                  0
               ],
               [
                  -4.4424883282587793,
                  40.710329747522259,
                  0
               ],
               [
                  -4.4424780685716794,
                  40.709840908214112,
                  0
               ],
               [
                  -4.4424810645400843,
                  40.709833951587427,
                  0
               ],
               [
                  -4.4424845331519061,
                  40.709830423778172,
                  0
               ],
               [
                  -4.4425053036222177,
                  40.709824146305124,
                  0
               ],
               [
                  -4.4425198397550467,
                  40.709822013801627,
                  0
               ],
               [
                  -4.4425490541332717,
                  40.709827847252036,
                  0
               ],
               [
                  -4.4425608107939158,
                  40.709833454787528,
                  0
               ],
               [
                  -4.442564144403816,
                  40.709835822102022,
                  0
               ],
               [
                  -4.4425647246072764,
                  40.709839604454871,
                  0
               ],
               [
                  -4.4425608444767866,
                  40.709848507172019,
                  0
               ],
               [
                  -4.4425615246039714,
                  40.709920437748913,
                  0
               ],
               [
                  -4.4425820125586739,
                  40.710788768114611,
                  0
               ],
               [
                  -4.4426052058698104,
                  40.71173264292964,
                  0
               ]
            ]
         },
         "properties":{
            "OBJECTID":9,
            "Shape_Length":662.83568907995209
         }
      },
      {
         "type":"Feature",
         "id":10,
         "geometry":{
            "type":"LineString",
            "coordinates":[
               [
                  -4.4423727275833098,
                  40.711745172909929,
                  0
               ],
               [
                  -4.4423687383902344,
                  40.71174029485006,
                  0
               ],
               [
                  -4.442359020203269,
                  40.711737836729483,
                  0
               ],
               [
                  -4.4423514692402142,
                  40.711735230992261,
                  0
               ],
               [
                  -4.4423500719964331,
                  40.711727544916855,
                  0
               ],
               [
                  -4.4423487906237034,
                  40.711654736360828,
                  0
               ],
               [
                  -4.4423336402189806,
                  40.710804490106028,
                  0
               ],
               [
                  -4.442312127147094,
                  40.709861575978692,
                  0
               ]
            ]
         },
         "properties":{
            "OBJECTID":10,
            "Shape_Length":210.31441594372274
         }
      },
      {
         "type":"Feature",
         "id":11,
         "geometry":{
            "type":"LineString",
            "coordinates":[
               [
                  -4.442312127147094,
                  40.709861575978692,
                  0
               ],
               [
                  -4.4423131441093977,
                  40.709854815593168,
                  0
               ],
               [
                  -4.4423165322721596,
                  40.70985001017273,
                  0
               ],
               [
                  -4.4423259047247967,
                  40.709839490307942,
                  0
               ],
               [
                  -4.4423430567635496,
                  40.70982555187657,
                  0
               ]
            ]
         },
         "properties":{
            "OBJECTID":11,
            "Shape_Length":4.8978141351640456
         }
      }
   ]
}