{"type":"FeatureCollection","features":[{"type":"Feature","id":1,"geometry":{"type":"LineString","coordinates":[[-4.4355465809999259,40.71209642000008],[-4.4357680759999312,40.712317233000078],[-4.4357782951524962,40.712325066305631],[-4.4357895965965515,40.712331236323237],[-4.4358017119004778,40.712335596502797],[-4.4358143533018772,40.712338043281434],[-4.4358272205424969,40.712338518543319],[-4.4358400079999569,40.712337011000045],[-4.4358562993267672,40.712334300773357],[-4.4358719695550386,40.712329085737039],[-4.4358866360629081,40.71232149322725],[-4.4358999407364754,40.71231170863124],[-4.4359115587139133,40.712299970860656],[-4.4359212063176594,40.712286566518081],[-4.4359286479810018,40.71227182289897],[-4.435933701999943,40.712256100000047],[-4.4358970819999399,40.710371827000074],[-4.435899548225426,40.710365105816869],[-4.4359030720390695,40.710358873697707],[-4.4359075601026241,40.710353295718022],[-4.4359128935369414,40.7103485196265],[-4.4359189310708151,40.71034467193153],[-4.4359255127829593,40.710341854550279],[-4.4359324643379745,40.710340142109118],[-4.4359396016041179,40.710339579966934],[-4.4359467355305613,40.710340183013656],[-4.4359536771549353,40.710341935275878],[-4.43596024260854,40.710344790339946],[-4.4359662579866299,40.710348672581347],[-4.4359715639547765,40.71035347916785],[-4.4359760199692957,40.710359082783334],[-4.4359795079999458,40.710365335000063],[-4.4360169599999608,40.712257770000065],[-4.4360139487770285,40.712271789575155],[-4.436008619246345,40.712285101676855],[-4.4360011236887162,40.712297325938188],[-4.4359916762748881,40.712308113075018],[-4.4359805469460412,40.712317154866248],[-4.4359680537007558,40.712324192960551],[-4.4359545535088269,40.712329026258288],[-4.4359404321115603,40.712331516657535],[-4.4359260929999778,40.712331593000044],[-4.4358122539999272,40.712334653000028],[-4.4357988427835755,40.712334675439557],[-4.4357855837983475,40.712332660361817],[-4.4357727847905872,40.712328654537572],[-4.435760742830376,40.712322750943599],[-4.4357497374164199,40.712315086604669],[-4.4357400239887745,40.712305839413155],[-4.4357318279999731,40.712295224000059],[-4.4355712319999725,40.712088812000047]]},"properties":{"OBJECTID":1,"Shape_Length":0.0050058784355784952}}]}