{"type":"FeatureCollection","features":[{"type":"Feature","id":1,"geometry":{"type":"LineString","coordinates":[[-4.4355465809999259,40.71209642000008],[-4.4357183249999252,40.712289216000045],[-4.4357219690740228,40.712292493178225],[-4.4357261127437546,40.712295110270887],[-4.4357306377830321,40.712296992607833],[-4.4357354150846309,40.712298086482726],[-4.4357403083438438,40.712298360685409],[-4.4357451779474939,40.712297807392417],[-4.4357498849573362,40.712296442390148],[-4.4357542950742097,40.712294304624493],[-4.4357582824698252,40.712291455089606],[-4.4357617333768662,40.712287975087676],[-4.4357645493349649,40.712283963909194],[-4.4357666499999482,40.71227953600004],[-4.435725447999971,40.710384574000045],[-4.4357280781141144,40.710377364302502],[-4.4357318529937801,40.710370682422337],[-4.4357366707906793,40.710364708640277],[-4.4357424015180511,40.710359604132194],[-4.4357488905577815,40.710355506620459],[-4.4357559628320757,40.710352526658149],[-4.4357634275271582,40.710350744646263],[-4.4357710832415282,40.710350208664444],[-4.4357787234198831,40.710350933173757],[-4.4357861419260871,40.710352898626567],[-4.4357931386048417,40.710356051993884],[-4.435799524681979,40.710360308196158],[-4.4358051278576927,40.710365552398763],[-4.4358097969552786,40.710371643110285],[-4.4358134059999657,40.710378416000026],[-4.4358539139999493,40.712262343000077],[-4.4358510772505007,40.712273451058167],[-4.4358464327565317,40.712283932698192],[-4.4358401098617035,40.712293496018894],[-4.4358322846511502,40.712301874693111],[-4.4358231750477213,40.712308835384697],[-4.4358130347430889,40.712314184246615],[-4.4358021461327288,40.712317772319402],[-4.4357908124515504,40.712319499679474],[-4.435779349329156,40.712319318221908],[-4.4357680759999312,40.712317233000078],[-4.435758153576403,40.712315956516761],[-4.4357486024239776,40.712312980044736],[-4.4357397114903936,40.712308393630195],[-4.4357317497500119,40.712302336024365],[-4.4357249580666318,40.712294990485908],[-4.435719541906721,40.712286579236881],[-4.4357156651235048,40.712277356739918],[-4.4357134449999762,40.712267602000054],[-4.4357128767343301,40.712264157678611],[-4.4357117589330421,40.712260850595854],[-4.4357101210240808,40.712257767816219],[-4.4357080061281078,40.712254990498977],[-4.4357054699232616,40.71225259176159],[-4.4357025791793285,40.712250634754803],[-4.435699409999927,40.712249171000053],[-4.4355712319999725,40.712088812000047]]},"properties":{"OBJECTID":1,"Shape_Length":0.0046367669486548297}}]}