{"type":"FeatureCollection","features":[{"type":"Feature","id":1,"geometry":{"type":"LineString","coordinates":[[-4.4352643409999359,40.712006669000061],[-4.4350902959999416,40.711860524000031],[-4.4350788789999456,40.711230162000049],[-4.4350816189190931,40.711222557066584],[-4.435085631785368,40.711215540010642],[-4.4350907968609308,40.711209321959146],[-4.4350969587406359,40.711204089998866],[-4.4351039320278112,40.71120000154734],[-4.4351115069124178,40.711197179616597],[-4.4351194554837434,40.711195709111998],[-4.4351275385877091,40.711195634277601],[-4.4351355130224617,40.711196957365004],[-4.435143138855751,40.711199638565589],[-4.4351501866439387,40.711203597208225],[-4.4351564443354219,40.711208714186554],[-4.4351617236507748,40.711214835542556],[-4.4351658657476412,40.711221777098828],[-4.4351687459999312,40.711229330000037],[-4.4351822879999645,40.711859937000042],[-4.4351849670708416,40.711866863147243],[-4.4351888004562001,40.711873223500419],[-4.4351936732867729,40.711878827468482],[-4.435199439545813,40.711883507125783],[-4.435205926444552,40.711887122244121],[-4.4352129395999009,40.711889564494697],[-4.4352202688592337,40.711890760694288],[-4.4352276945977156,40.71189067499818],[-4.4352349942994662,40.711889309974303],[-4.4352419492253565,40.711886706526272],[-4.4352483509676368,40.711882942667664],[-4.4352540076949722,40.711878131184349],[-4.4352587499007656,40.711872416254778],[-4.435262435482505,40.711865969129597],[-4.4352649539999334,40.71185898300007],[-4.43525365499994,40.711228274000064],[-4.4352561601456006,40.71122133506573],[-4.4352598231726077,40.711214931410716],[-4.4352645345619255,40.711209254494726],[-4.4352701534500545,40.711204474049076],[-4.4352765118406348,40.711200733001938],[-4.4352834196272894,40.711198143205038],[-4.435290670277519,40.711196782089438],[-4.4352980470077163,40.711196690350448],[-4.4353053292646702,40.711197870730935],[-4.4353122993197793,40.711200287939292],[-4.435318748778811,40.711203869704583],[-4.4353244848125772,40.711208508937396],[-4.4353293359222388,40.711214066931596],[-4.4353331570668653,40.711220377511452],[-4.4353358339999431,40.711227252000072],[-4.4353473849999432,40.71185803000003],[-4.4353487271862528,40.711873498081346],[-4.4353520793526915,40.711888658094011],[-4.4353573839999285,40.711903250000034],[-4.435361020543219,40.711908027142997],[-4.4353653794905297,40.711912155716639],[-4.4353703468652075,40.711915527768063],[-4.4353757927815929,40.711918055125714],[-4.43538157484124,40.711919671704891],[-4.4353875418563122,40.711920335235682],[-4.4353935378028071,40.711920028368247],[-4.4353994059002284,40.711918759126497],[-4.4354049927110486,40.711916560698228],[-4.4354101521527465,40.71191349056739],[-4.4354147493175446,40.711909629010997],[-4.4354186639999398,40.71190507700004],[-4.4354239907860977,40.711893804342338],[-4.4354276241437995,40.711881877642277],[-4.4354294870462088,40.711869549744769],[-4.4354295399999728,40.711857082000051],[-4.4354176919999304,40.711226234000037],[-4.4354201771811255,40.711219337651926],[-4.4354238137437108,40.711212972814501],[-4.4354284928540348,40.711207329972183],[-4.4354340744774765,40.711202578001789],[-4.4354403915693483,40.711198859118475],[-4.4354472550741475,40.711196284619547],[-4.4354544595835312,40.711194931553628],[-4.4354617894837052,40.711194840414748],[-4.4354690254082261,40.71119601393049],[-4.4354759508031174,40.711198416980309],[-4.4354823584078149,40.711201977646667],[-4.4354880564579826,40.711206589367293],[-4.4354928744245576,40.711212114124386],[-4.4354966681172829,40.711218386575133],[-4.4354993239999772,40.711225219000028],[-4.4355098209999255,40.711856154000031],[-4.4355125747426785,40.711863344053782],[-4.4355165303228317,40.711869949608854],[-4.4355215685623373,40.711875771645857],[-4.4355275376636056,40.711880634752085],[-4.4355342577830248,40.711884392406553],[-4.4355415264494846,40.711886931394545],[-4.4355491246646528,40.711888175218654],[-4.4355568235011891,40.711888086403576],[-4.4355643910001259,40.711886667625237],[-4.4355715991595783,40.711883961630143],[-4.4355782308042322,40.711880049947474],[-4.4355840861286433,40.711875050432681],[-4.4355889887171926,40.711869113716617],[-4.4355927908593307,40.711862418667152],[-4.4355953779999595,40.711855167000067],[-4.4355841449999502,40.711224164000043],[-4.4355866441347391,40.7112172435559],[-4.4355902979819284,40.711210857037088],[-4.4355949973114521,40.711205195365615],[-4.4356006016390381,40.711200427794523],[-4.4356069434259178,40.711196696848134],[-4.4356138330873209,40.71119411406135],[-4.4356210646600207,40.711192756645382],[-4.435628421959513,40.711192665179553],[-4.4356356850427492,40.711193842398195],[-4.4356426367832302,40.711196253108902],[-4.4356490693619071,40.711199825244591],[-4.4356547904798287,40.711204452017931],[-4.4356596291068344,40.711209995113684],[-4.4356634405944186,40.711216288823579],[-4.4356661109999322,40.711223145000076],[-4.4356849249999755,40.712125986000046],[-4.4356827991510839,40.71213192873099],[-4.4356796746399354,40.712137412590458],[-4.4356756462082547,40.712142271296329],[-4.4356708360065378,40.712146357522464],[-4.4356653898901843,40.712149547365918],[-4.4356594729968588,40.712151744103942],[-4.4356532647391722,40.71215288112684],[-4.4356469533645129,40.712152923957696],[-4.4356407302469911,40.712151871297785],[-4.4356347840845771,40.712149755065965],[-4.4356292951773808,40.712146639430813],[-4.4356244299605763,40.712142618864931],[-4.4356203359577355,40.7121378152803],[-4.4356171373076085,40.712132374331674],[-4.4356149309999751,40.712126461000025],[-4.4356047294696639,40.712095671175717],[-4.4355895512238721,40.712067005772241],[-4.4355698186926444,40.712041262584535],[-4.4355460810576313,40.712019158078533],[-4.4355189989676544,40.712001307450976],[-4.4354893261520081,40.711988207507723],[-4.4354578884432012,40.711980222836985],[-4.4354255607929858,40.711977575662402],[-4.4353932429213234,40.711980339658226],[-4.4353618342760255,40.711988437898917],[-4.4353322089999665,40.712001645000043]]},"properties":{"OBJECTID":1,"Shape_Length":0.0068469251470075947}}]}