{
  "hasZ": true,
  "type": "FeatureCollection",
  "features": [
    {
      "type": "Feature",
      "id": 1,
      "geometry": {
        "type": "LineString",
        "coordinates": [
          [
            -4.43670889377134,
            40.713316439770026,
            0
          ],
          [
            -4.436685087731242,
            40.71233282629477,
            0
          ],
          [
            -4.43618483684435,
            40.71235236948117,
            0
          ],
          [
            -4.4362105800710205,
            40.71337030584321,
            0
          ],
          [
            -4.435884040788498,
            40.71339474405957,
            0
          ],
          [
            -4.435857905782657,
            40.712394103731285,
            0
          ]
        ]
      },
      "properties": {
        "OBJECTID": 1,
        "Shape_Length": 403.76474330925
      }
    }
  ]
}